start=new Date('2022-09-18T00:00:00.000Z').valueOf();
sats=[{"ARG_OF_PERICENTER":"64.3317","OBJECT_NAME":"STARLINK-3244","MEAN_MOTION_DOT":"-0.00000657","ECCENTRICITY":"0.00016480","TLE_LINE1":"1 49741U 21115T   22260.78767112 -.00000657  00000-0 -23205-4 0  9992","REF_FRAME":"TEME","OBJECT_ID":"2021-115T","MEAN_ELEMENT_THEORY":"SGP4","FILE":"3576621","TIME_SYSTEM":"UTC","PERIOD":"95.438","EPHEMERIS_TYPE":"0","RA_OF_ASC_NODE":"85.4371","CENTER_NAME":"EARTH","NORAD_CAT_ID":"49741","OBJECT_TYPE":"PAYLOAD","ELEMENT_SET_NO":"999","BSTAR":"-0.00002320500000","LAUNCH_DATE":"2021-12-02","REV_AT_EPOCH":"4397","MEAN_MOTION_DDOT":"0.0000000000000","GP_ID":"212872114","MEAN_MOTION":"15.08836206","APOAPSIS":"540.897","SEMIMAJOR_AXIS":"6917.892","CLASSIFICATION_TYPE":"U","RCS_SIZE":"LARGE","EPOCH":"2022-09-17T18:54:14.784768","INCLINATION":"53.2161","MEAN_ANOMALY":"295.7846","TLE_LINE2":"2 49741  53.2161  85.4371 0001648  64.3317 295.7846 15.08836206 43979","COUNTRY_CODE":"US","DECAY_DATE":null,"SITE":"AFETR","PERIAPSIS":"538.617"},{"BSTAR":"0.00002067200000","ELEMENT_SET_NO":"999","OBJECT_TYPE":"PAYLOAD","NORAD_CAT_ID":"49742","CENTER_NAME":"EARTH","RA_OF_ASC_NODE":"85.3806","EPHEMERIS_TYPE":"0","PERIOD":"95.438","TIME_SYSTEM":"UTC","MEAN_ELEMENT_THEORY":"SGP4","FILE":"3576621","OBJECT_ID":"2021-115U","REF_FRAME":"TEME","TLE_LINE1":"1 49742U 21115U   22260.80238634  .00000041  00000-0  20672-4 0  9998","ECCENTRICITY":"0.00017120","MEAN_MOTION_DOT":"0.00000041","ARG_OF_PERICENTER":"55.1786","OBJECT_NAME":"STARLINK-3202","PERIAPSIS":"538.563","SITE":"AFETR","DECAY_DATE":null,"COUNTRY_CODE":"US","TLE_LINE2":"2 49742  53.2160  85.3806 0001712  55.1786 304.9367 15.08839403 43974","MEAN_ANOMALY":"304.9367","INCLINATION":"53.2160","EPOCH":"2022-09-17T19:15:26.179776","RCS_SIZE":"LARGE","CLASSIFICATION_TYPE":"U","SEMIMAJOR_AXIS":"6917.882","APOAPSIS":"540.932","MEAN_MOTION":"15.08839403","GP_ID":"212870892","MEAN_MOTION_DDOT":"0.0000000000000","LAUNCH_DATE":"2021-12-02","REV_AT_EPOCH":"4397"},{"TLE_LINE2":"2 49743  53.2163  85.4290 0001617  53.8187 306.2955 15.08851882 43973","COUNTRY_CODE":"US","DECAY_DATE":null,"SITE":"AFETR","PERIAPSIS":"538.590","RCS_SIZE":"LARGE","EPOCH":"2022-09-17T18:59:31.935840","INCLINATION":"53.2163","MEAN_ANOMALY":"306.2955","APOAPSIS":"540.828","SEMIMAJOR_AXIS":"6917.844","CLASSIFICATION_TYPE":"U","LAUNCH_DATE":"2021-12-02","MEAN_MOTION_DDOT":"0.0000000000000","REV_AT_EPOCH":"4397","GP_ID":"212871142","MEAN_MOTION":"15.08851882","RA_OF_ASC_NODE":"85.4290","CENTER_NAME":"EARTH","NORAD_CAT_ID":"49743","OBJECT_TYPE":"PAYLOAD","ELEMENT_SET_NO":"999","BSTAR":"-0.00017546000000","FILE":"3576621","MEAN_ELEMENT_THEORY":"SGP4","TIME_SYSTEM":"UTC","PERIOD":"95.437","EPHEMERIS_TYPE":"0","ECCENTRICITY":"0.00016170","TLE_LINE1":"1 49743U 21115V   22260.79134185 -.00003080  00000-0 -17546-3 0  9996","REF_FRAME":"TEME","OBJECT_ID":"2021-115V","OBJECT_NAME":"STARLINK-3239","ARG_OF_PERICENTER":"53.8187","MEAN_MOTION_DOT":"-0.00003080"},{"RCS_SIZE":"LARGE","EPOCH":"2022-09-17T19:26:02.645376","INCLINATION":"53.2177","MEAN_ANOMALY":"294.0637","TLE_LINE2":"2 49744  53.2177  85.3421 0001688  66.0532 294.0637 15.08830092 43973","COUNTRY_CODE":"US","SITE":"AFETR","DECAY_DATE":null,"PERIAPSIS":"538.608","REV_AT_EPOCH":"4397","LAUNCH_DATE":"2021-12-02","MEAN_MOTION_DDOT":"0.0000000000000","GP_ID":"212871891","MEAN_MOTION":"15.08830092","APOAPSIS":"540.943","SEMIMAJOR_AXIS":"6917.911","CLASSIFICATION_TYPE":"U","MEAN_ELEMENT_THEORY":"SGP4","FILE":"3576621","TIME_SYSTEM":"UTC","PERIOD":"95.438","EPHEMERIS_TYPE":"0","RA_OF_ASC_NODE":"85.3421","CENTER_NAME":"EARTH","NORAD_CAT_ID":"49744","OBJECT_TYPE":"PAYLOAD","ELEMENT_SET_NO":"999","BSTAR":"-0.00001764600000","ARG_OF_PERICENTER":"66.0532","OBJECT_NAME":"STARLINK-3231","MEAN_MOTION_DOT":"-0.00000569","ECCENTRICITY":"0.00016880","TLE_LINE1":"1 49744U 21115W   22260.80975284 -.00000569  00000-0 -17646-4 0  9993","REF_FRAME":"TEME","OBJECT_ID":"2021-115W"},{"BSTAR":"0.00002288200000","ELEMENT_SET_NO":"999","OBJECT_TYPE":"PAYLOAD","CENTER_NAME":"EARTH","NORAD_CAT_ID":"49745","RA_OF_ASC_NODE":"85.4019","EPHEMERIS_TYPE":"0","PERIOD":"95.438","MEAN_ELEMENT_THEORY":"SGP4","FILE":"3576621","TIME_SYSTEM":"UTC","OBJECT_ID":"2021-115X","TLE_LINE1":"1 49745U 21115X   22260.79870402  .00000076  00000-0  22882-4 0  9997","REF_FRAME":"TEME","ECCENTRICITY":"0.00016170","MEAN_MOTION_DOT":"0.00000076","ARG_OF_PERICENTER":"63.1874","OBJECT_NAME":"STARLINK-3241","DECAY_DATE":null,"SITE":"AFETR","PERIAPSIS":"538.625","COUNTRY_CODE":"US","TLE_LINE2":"2 49745  53.2165  85.4019 0001617  63.1874 296.9283 15.08840703 43972","INCLINATION":"53.2165","MEAN_ANOMALY":"296.9283","EPOCH":"2022-09-17T19:10:08.027328","RCS_SIZE":"LARGE","SEMIMAJOR_AXIS":"6917.878","CLASSIFICATION_TYPE":"U","APOAPSIS":"540.862","MEAN_MOTION":"15.08840703","GP_ID":"212871614","LAUNCH_DATE":"2021-12-02","REV_AT_EPOCH":"4397","MEAN_MOTION_DDOT":"0.0000000000000"},{"ECCENTRICITY":"0.00017110","TLE_LINE1":"1 49746U 21115Y   22260.81711255  .00000329  00000-0  38803-4 0  9992","REF_FRAME":"TEME","OBJECT_ID":"2021-115Y","OBJECT_NAME":"STARLINK-3233","ARG_OF_PERICENTER":"49.7850","MEAN_MOTION_DOT":"0.00000329","RA_OF_ASC_NODE":"85.3046","CENTER_NAME":"EARTH","NORAD_CAT_ID":"49746","OBJECT_TYPE":"PAYLOAD","ELEMENT_SET_NO":"999","BSTAR":"0.00003880300000","FILE":"3576621","MEAN_ELEMENT_THEORY":"SGP4","TIME_SYSTEM":"UTC","PERIOD":"95.438","EPHEMERIS_TYPE":"0","APOAPSIS":"540.969","SEMIMAJOR_AXIS":"6917.920","CLASSIFICATION_TYPE":"U","LAUNCH_DATE":"2021-12-02","MEAN_MOTION_DDOT":"0.0000000000000","REV_AT_EPOCH":"4397","GP_ID":"212870392","MEAN_MOTION":"15.08827053","TLE_LINE2":"2 49746  53.2154  85.3046 0001711  49.7850 310.3291 15.08827053 43972","COUNTRY_CODE":"US","DECAY_DATE":null,"SITE":"AFETR","PERIAPSIS":"538.601","RCS_SIZE":"LARGE","EPOCH":"2022-09-17T19:36:38.524320","INCLINATION":"53.2154","MEAN_ANOMALY":"310.3291"},{"RA_OF_ASC_NODE":"85.6501","NORAD_CAT_ID":"49747","CENTER_NAME":"EARTH","OBJECT_TYPE":"PAYLOAD","ELEMENT_SET_NO":"999","BSTAR":"0.00021243000000","TIME_SYSTEM":"UTC","MEAN_ELEMENT_THEORY":"SGP4","FILE":"3576621","PERIOD":"95.440","EPHEMERIS_TYPE":"0","ECCENTRICITY":"0.00016560","REF_FRAME":"TEME","TLE_LINE1":"1 49747U 21115Z   22260.73984502  .00003092  00000-0  21243-3 0  9990","OBJECT_ID":"2021-115Z","OBJECT_NAME":"STARLINK-3247","ARG_OF_PERICENTER":"45.6914","MEAN_MOTION_DOT":"0.00003092","TLE_LINE2":"2 49747  53.2179  85.6501 0001656  45.6914 314.4213 15.08807822 43963","COUNTRY_CODE":"US","PERIAPSIS":"538.698","SITE":"AFETR","DECAY_DATE":null,"RCS_SIZE":"LARGE","EPOCH":"2022-09-17T17:45:22.609728","MEAN_ANOMALY":"314.4213","INCLINATION":"53.2179","APOAPSIS":"540.989","CLASSIFICATION_TYPE":"U","SEMIMAJOR_AXIS":"6917.979","REV_AT_EPOCH":"4396","LAUNCH_DATE":"2021-12-02","MEAN_MOTION_DDOT":"0.0000000000000","GP_ID":"212870642","MEAN_MOTION":"15.08807822"},{"OBJECT_NAME":"STARLINK-3248","ARG_OF_PERICENTER":"51.8931","MEAN_MOTION_DOT":"0.00000471","REF_FRAME":"TEME","TLE_LINE1":"1 49748U 21115AA  22260.82446503  .00000471  00000-0  47692-4 0  9990","OBJECT_ID":"2021-115AA","ECCENTRICITY":"0.00016000","PERIOD":"95.438","EPHEMERIS_TYPE":"0","TIME_SYSTEM":"UTC","MEAN_ELEMENT_THEORY":"SGP4","FILE":"3576621","OBJECT_TYPE":"PAYLOAD","BSTAR":"0.00004769200000","ELEMENT_SET_NO":"999","RA_OF_ASC_NODE":"85.2951","NORAD_CAT_ID":"49748","CENTER_NAME":"EARTH","GP_ID":"212871391","MEAN_MOTION":"15.08840847","LAUNCH_DATE":"2021-12-02","REV_AT_EPOCH":"4398","MEAN_MOTION_DDOT":"0.0000000000000","CLASSIFICATION_TYPE":"U","SEMIMAJOR_AXIS":"6917.878","APOAPSIS":"540.850","EPOCH":"2022-09-17T19:47:13.778592","MEAN_ANOMALY":"308.2205","INCLINATION":"53.2159","RCS_SIZE":"LARGE","COUNTRY_CODE":"US","PERIAPSIS":"538.636","DECAY_DATE":null,"SITE":"AFETR","TLE_LINE2":"2 49748  53.2159  85.2951 0001600  51.8931 308.2205 15.08840847 43982"},{"GP_ID":"212872115","MEAN_MOTION":"15.08839352","REV_AT_EPOCH":"4396","LAUNCH_DATE":"2021-12-02","MEAN_MOTION_DDOT":"0.0000000000000","CLASSIFICATION_TYPE":"U","SEMIMAJOR_AXIS":"6917.882","APOAPSIS":"540.846","EPOCH":"2022-09-17T17:55:56.206848","INCLINATION":"53.2167","MEAN_ANOMALY":"308.6987","RCS_SIZE":"LARGE","COUNTRY_CODE":"US","PERIAPSIS":"538.649","SITE":"AFETR","DECAY_DATE":null,"TLE_LINE2":"2 49749  53.2167  85.6232 0001588  51.4147 308.6987 15.08839352 43966","OBJECT_NAME":"STARLINK-3250","ARG_OF_PERICENTER":"51.4147","MEAN_MOTION_DOT":"0.00001311","REF_FRAME":"TEME","TLE_LINE1":"1 49749U 21115AB  22260.74717832  .00001311  00000-0  10043-3 0  9991","OBJECT_ID":"2021-115AB","ECCENTRICITY":"0.00015880","PERIOD":"95.438","EPHEMERIS_TYPE":"0","TIME_SYSTEM":"UTC","FILE":"3576621","MEAN_ELEMENT_THEORY":"SGP4","OBJECT_TYPE":"PAYLOAD","BSTAR":"0.00010043000000","ELEMENT_SET_NO":"999","RA_OF_ASC_NODE":"85.6232","NORAD_CAT_ID":"49749","CENTER_NAME":"EARTH"},{"ECCENTRICITY":"0.00015790","TLE_LINE1":"1 49750U 21115AC  22260.83182540  .00001519  00000-0  11349-3 0  9995","REF_FRAME":"TEME","OBJECT_ID":"2021-115AC","OBJECT_NAME":"STARLINK-3236","ARG_OF_PERICENTER":"56.9445","MEAN_MOTION_DOT":"0.00001519","RA_OF_ASC_NODE":"85.2533","CENTER_NAME":"EARTH","NORAD_CAT_ID":"49750","OBJECT_TYPE":"PAYLOAD","ELEMENT_SET_NO":"999","BSTAR":"0.00011349000000","FILE":"3576621","MEAN_ELEMENT_THEORY":"SGP4","TIME_SYSTEM":"UTC","PERIOD":"95.437","EPHEMERIS_TYPE":"0","APOAPSIS":"540.826","SEMIMAJOR_AXIS":"6917.869","CLASSIFICATION_TYPE":"U","MEAN_MOTION_DDOT":"0.0000000000000","LAUNCH_DATE":"2021-12-02","REV_AT_EPOCH":"4398","GP_ID":"212870893","MEAN_MOTION":"15.08843833","TLE_LINE2":"2 49750  53.2164  85.2533 0001579  56.9445 303.1699 15.08843833 43987","COUNTRY_CODE":"US","SITE":"AFETR","DECAY_DATE":null,"PERIAPSIS":"538.641","RCS_SIZE":"MEDIUM","EPOCH":"2022-09-17T19:57:49.714560","MEAN_ANOMALY":"303.1699","INCLINATION":"53.2164"}];
